[{"OBJECT_NAME":"SAOCOM 1B","OBJECT_ID":"2020-059A","EPOCH":"2026-03-14T01:04:39.385920","MEAN_MOTION":14.82151938,"ECCENTRICITY":0.00013837,"INCLINATION":97.8899,"RA_OF_ASC_NODE":260.2532,"ARG_OF_PERICENTER":84.3427,"MEAN_ANOMALY":275.7944,"EPHEMERIS_TYPE":0,"CLASSIFICATION_TYPE":"U","NORAD_CAT_ID":46265,"ELEMENT_SET_NO":999,"REV_AT_EPOCH":29939,"BSTAR":2.6755151e-5,"MEAN_MOTION_DOT":1.61e-6,"MEAN_MOTION_DDOT":0},{"OBJECT_NAME":"CSS (TIANHE)","OBJECT_ID":"2021-035A","EPOCH":"2026-03-14T00:03:53.258400","MEAN_MOTION":15.6090469,"ECCENTRICITY":0.0006689,"INCLINATION":41.4663,"RA_OF_ASC_NODE":181.9138,"ARG_OF_PERICENTER":299.3968,"MEAN_ANOMALY":60.6202,"EPHEMERIS_TYPE":0,"CLASSIFICATION_TYPE":"U","NORAD_CAT_ID":48274,"ELEMENT_SET_NO":999,"REV_AT_EPOCH":27828,"BSTAR":0.00034787289,"MEAN_MOTION_DOT":0.00029757,"MEAN_MOTION_DDOT":0},{"OBJECT_NAME":"COSMOS 2550","OBJECT_ID":"2021-056A","EPOCH":"2026-03-12T09:16:30.213120","MEAN_MOTION":15.33837293,"ECCENTRICITY":0.0008377,"INCLINATION":67.1461,"RA_OF_ASC_NODE":32.7743,"ARG_OF_PERICENTER":269.6455,"MEAN_ANOMALY":90.374,"EPHEMERIS_TYPE":0,"CLASSIFICATION_TYPE":"U","NORAD_CAT_ID":48865,"ELEMENT_SET_NO":999,"REV_AT_EPOCH":26387,"BSTAR":6.0433e-8,"MEAN_MOTION_DOT":-1.9e-6,"MEAN_MOTION_DDOT":0},{"OBJECT_NAME":"CZ-2C R/B","OBJECT_ID":"2022-058K","EPOCH":"2026-03-14T15:43:18.508512","MEAN_MOTION":15.54619601,"ECCENTRICITY":0.00420095,"INCLINATION":50.1888,"RA_OF_ASC_NODE":292.7408,"ARG_OF_PERICENTER":221.9674,"MEAN_ANOMALY":137.8076,"EPHEMERIS_TYPE":0,"CLASSIFICATION_TYPE":"U","NORAD_CAT_ID":52794,"ELEMENT_SET_NO":999,"REV_AT_EPOCH":21090,"BSTAR":0.00064243713,"MEAN_MOTION_DOT":0.00044821,"MEAN_MOTION_DDOT":0},{"OBJECT_NAME":"CZ-2C R/B","OBJECT_ID":"2022-132E","EPOCH":"2026-03-14T13:27:09.448992","MEAN_MOTION":15.62339079,"ECCENTRICITY":0.00202051,"INCLINATION":97.296,"RA_OF_ASC_NODE":77.027,"ARG_OF_PERICENTER":76.1328,"MEAN_ANOMALY":284.2177,"EPHEMERIS_TYPE":0,"CLASSIFICATION_TYPE":"U","NORAD_CAT_ID":54039,"ELEMENT_SET_NO":999,"REV_AT_EPOCH":19113,"BSTAR":0.00063872034,"MEAN_MOTION_DOT":0.00057183,"MEAN_MOTION_DDOT":0},{"OBJECT_NAME":"GSLV R/B","OBJECT_ID":"2022-138AN","EPOCH":"2026-03-14T12:49:29.180928","MEAN_MOTION":14.96815129,"ECCENTRICITY":0.00235335,"INCLINATION":87.388,"RA_OF_ASC_NODE":164.741,"ARG_OF_PERICENTER":130.316,"MEAN_ANOMALY":230.0133,"EPHEMERIS_TYPE":0,"CLASSIFICATION_TYPE":"U","NORAD_CAT_ID":54149,"ELEMENT_SET_NO":999,"REV_AT_EPOCH":18465,"BSTAR":0.00037844482,"MEAN_MOTION_DOT":4.384e-5,"MEAN_MOTION_DDOT":0},{"OBJECT_NAME":"XRISM","OBJECT_ID":"2023-137A","EPOCH":"2026-03-14T14:14:21.817248","MEAN_MOTION":15.11561108,"ECCENTRICITY":0.00079256,"INCLINATION":31.0008,"RA_OF_ASC_NODE":251.9451,"ARG_OF_PERICENTER":87.8995,"MEAN_ANOMALY":272.2551,"EPHEMERIS_TYPE":0,"CLASSIFICATION_TYPE":"U","NORAD_CAT_ID":57800,"ELEMENT_SET_NO":999,"REV_AT_EPOCH":13853,"BSTAR":0.00039922596,"MEAN_MOTION_DOT":7.043e-5,"MEAN_MOTION_DDOT":0},{"OBJECT_NAME":"ACS3","OBJECT_ID":"2024-077B","EPOCH":"2026-03-14T12:54:28.905984","MEAN_MOTION":13.89866956,"ECCENTRICITY":0.0064161,"INCLINATION":97.2039,"RA_OF_ASC_NODE":13.5597,"ARG_OF_PERICENTER":64.9868,"MEAN_ANOMALY":295.7941,"EPHEMERIS_TYPE":0,"CLASSIFICATION_TYPE":"U","NORAD_CAT_ID":59588,"ELEMENT_SET_NO":999,"REV_AT_EPOCH":9487,"BSTAR":0.027218928,"MEAN_MOTION_DOT":0.00034152,"MEAN_MOTION_DDOT":0},{"OBJECT_NAME":"SZ-21 MODULE","OBJECT_ID":"2025-246C","EPOCH":"2026-03-13T13:47:50.452800","MEAN_MOTION":15.68874146,"ECCENTRICITY":0.00010106,"INCLINATION":41.4731,"RA_OF_ASC_NODE":179.4377,"ARG_OF_PERICENTER":309.0341,"MEAN_ANOMALY":51.041,"EPHEMERIS_TYPE":0,"CLASSIFICATION_TYPE":"U","NORAD_CAT_ID":66515,"ELEMENT_SET_NO":999,"REV_AT_EPOCH":1868,"BSTAR":0.00036004804,"MEAN_MOTION_DOT":0.00042463,"MEAN_MOTION_DDOT":0}]
